[{"OBJECT_NAME":"STARLINK-34515","OBJECT_ID":"2025-142S","EPOCH":"2026-03-09T21:14:59.650368","MEAN_MOTION":14.98337717,"ECCENTRICITY":0.000332,"INCLINATION":70.0014,"RA_OF_ASC_NODE":313.7945,"ARG_OF_PERICENTER":267.4823,"MEAN_ANOMALY":92.5956,"EPHEMERIS_TYPE":0,"CLASSIFICATION_TYPE":"U","NORAD_CAT_ID":64712,"ELEMENT_SET_NO":999,"REV_AT_EPOCH":3949,"BSTAR":0.00023972917,"MEAN_MOTION_DOT":2.769e-5,"MEAN_MOTION_DDOT":0},{"OBJECT_NAME":"LEMUR-2-KARENDARRELL","OBJECT_ID":"2025-135BU","EPOCH":"2026-03-09T21:08:31.963200","MEAN_MOTION":14.98475386,"ECCENTRICITY":0.00078103,"INCLINATION":97.7605,"RA_OF_ASC_NODE":185.4061,"ARG_OF_PERICENTER":183.1489,"MEAN_ANOMALY":176.9686,"EPHEMERIS_TYPE":0,"CLASSIFICATION_TYPE":"U","NORAD_CAT_ID":64841,"ELEMENT_SET_NO":999,"REV_AT_EPOCH":3913,"BSTAR":0.00091115502,"MEAN_MOTION_DOT":0.00010849,"MEAN_MOTION_DDOT":0}]
